start=new Date('2023-06-20T00:00:00.000Z').valueOf();
sats=[{"OBJECT_TYPE":"PAYLOAD","MEAN_ANOMALY":"283.6151","NORAD_CAT_ID":"53683","RCS_SIZE":"LARGE","REF_FRAME":"TEME","SEMIMAJOR_AXIS":"6941.117","MEAN_MOTION":"15.01269601","SITE":"AFWTR","TLE_LINE1":"1 53683U 22105AM  23170.74332315  .00003452  00000-0  27311-3 0  9997","LAUNCH_DATE":"2022-08-31","ECCENTRICITY":"0.00045320","CENTER_NAME":"EARTH","TLE_LINE2":"2 53683  97.6563  51.7818 0004532  76.5578 283.6151 15.01269601 44112","APOAPSIS":"566.128","BSTAR":"0.00027311000000","EPHEMERIS_TYPE":"0","OBJECT_NAME":"STARLINK-4625","TIME_SYSTEM":"UTC","GP_ID":"234319080","INCLINATION":"97.6563","REV_AT_EPOCH":"4411","ELEMENT_SET_NO":"999","FILE":"3937509","EPOCH":"2023-06-19T17:50:23.120160","MEAN_MOTION_DOT":"0.00003452","OBJECT_ID":"2022-105AM","DECAY_DATE":null,"ARG_OF_PERICENTER":"76.5578","PERIAPSIS":"559.837","MEAN_MOTION_DDOT":"0.0000000000000","COUNTRY_CODE":"US","MEAN_ELEMENT_THEORY":"SGP4","CLASSIFICATION_TYPE":"U","RA_OF_ASC_NODE":"51.7818","PERIOD":"95.919"},{"DECAY_DATE":null,"ARG_OF_PERICENTER":"90.6167","PERIAPSIS":"561.837","MEAN_MOTION_DDOT":"0.0000000000000","MEAN_ELEMENT_THEORY":"SGP4","COUNTRY_CODE":"US","CLASSIFICATION_TYPE":"U","RA_OF_ASC_NODE":"51.5257","PERIOD":"95.919","BSTAR":"0.00025473000000","EPHEMERIS_TYPE":"0","TIME_SYSTEM":"UTC","OBJECT_NAME":"STARLINK-4624","GP_ID":"234287404","INCLINATION":"97.6575","REV_AT_EPOCH":"4406","ELEMENT_SET_NO":"999","EPOCH":"2023-06-19T10:17:08.528352","FILE":"3937338","MEAN_MOTION_DOT":"0.00003214","OBJECT_ID":"2022-105AN","SITE":"AFWTR","LAUNCH_DATE":"2022-08-31","TLE_LINE1":"1 53684U 22105AN  23170.42857093  .00003214  00000-0  25473-3 0  9991","CENTER_NAME":"EARTH","ECCENTRICITY":"0.00016860","TLE_LINE2":"2 53684  97.6575  51.5257 0001686  90.6167 269.5250 15.01261536 44065","APOAPSIS":"564.177","MEAN_ANOMALY":"269.5250","OBJECT_TYPE":"PAYLOAD","RCS_SIZE":"LARGE","NORAD_CAT_ID":"53684","SEMIMAJOR_AXIS":"6941.142","REF_FRAME":"TEME","MEAN_MOTION":"15.01261536"},{"OBJECT_TYPE":"PAYLOAD","MEAN_ANOMALY":"302.2924","NORAD_CAT_ID":"53685","RCS_SIZE":"LARGE","SEMIMAJOR_AXIS":"6941.125","REF_FRAME":"TEME","MEAN_MOTION":"15.01267160","SITE":"AFWTR","LAUNCH_DATE":"2022-08-31","TLE_LINE1":"1 53685U 22105AP  23170.40636741  .00001983  00000-0  15889-3 0  9996","ECCENTRICITY":"0.00050120","CENTER_NAME":"EARTH","TLE_LINE2":"2 53685  97.6561  51.4490 0005012  57.8786 302.2924 15.01267160 44060","APOAPSIS":"566.469","BSTAR":"0.00015889000000","EPHEMERIS_TYPE":"0","OBJECT_NAME":"STARLINK-4626","TIME_SYSTEM":"UTC","GP_ID":"234287654","INCLINATION":"97.6561","REV_AT_EPOCH":"4406","ELEMENT_SET_NO":"999","FILE":"3937338","EPOCH":"2023-06-19T09:45:10.144224","MEAN_MOTION_DOT":"0.00001983","OBJECT_ID":"2022-105AP","DECAY_DATE":null,"ARG_OF_PERICENTER":"57.8786","PERIAPSIS":"559.511","MEAN_MOTION_DDOT":"0.0000000000000","MEAN_ELEMENT_THEORY":"SGP4","COUNTRY_CODE":"US","RA_OF_ASC_NODE":"51.4490","CLASSIFICATION_TYPE":"U","PERIOD":"95.919"},{"MEAN_MOTION":"15.02082897","REF_FRAME":"TEME","SEMIMAJOR_AXIS":"6938.612","NORAD_CAT_ID":"53686","RCS_SIZE":"LARGE","MEAN_ANOMALY":"267.9502","OBJECT_TYPE":"PAYLOAD","TLE_LINE2":"2 53686  97.6535  51.7870 0003540  92.2128 267.9502 15.02082897 44112","APOAPSIS":"562.933","LAUNCH_DATE":"2022-08-31","TLE_LINE1":"1 53686U 22105AQ  23170.72197387  .00005474  00000-0  42124-3 0  9991","ECCENTRICITY":"0.00035400","CENTER_NAME":"EARTH","SITE":"AFWTR","MEAN_MOTION_DOT":"0.00005474","OBJECT_ID":"2022-105AQ","REV_AT_EPOCH":"4411","ELEMENT_SET_NO":"999","INCLINATION":"97.6535","EPOCH":"2023-06-19T17:19:38.542368","FILE":"3937509","EPHEMERIS_TYPE":"0","GP_ID":"234318832","TIME_SYSTEM":"UTC","OBJECT_NAME":"STARLINK-4467","BSTAR":"0.00042124000000","PERIOD":"95.867","RA_OF_ASC_NODE":"51.7870","CLASSIFICATION_TYPE":"U","MEAN_ELEMENT_THEORY":"SGP4","COUNTRY_CODE":"US","ARG_OF_PERICENTER":"92.2128","DECAY_DATE":null,"MEAN_MOTION_DDOT":"0.0000000000000","PERIAPSIS":"558.020"},{"ARG_OF_PERICENTER":"56.5780","DECAY_DATE":null,"MEAN_MOTION_DDOT":"0.0000000000000","PERIAPSIS":"559.882","PERIOD":"95.920","RA_OF_ASC_NODE":"51.4452","CLASSIFICATION_TYPE":"U","MEAN_ELEMENT_THEORY":"SGP4","COUNTRY_CODE":"US","EPHEMERIS_TYPE":"0","GP_ID":"234294489","OBJECT_NAME":"STARLINK-4569","TIME_SYSTEM":"UTC","BSTAR":"0.00024402000000","MEAN_MOTION_DOT":"0.00003076","OBJECT_ID":"2022-105AR","REV_AT_EPOCH":"4434","ELEMENT_SET_NO":"999","INCLINATION":"97.6559","EPOCH":"2023-06-19T09:42:30.375936","FILE":"3937460","TLE_LINE1":"1 53687U 22105AR  23170.40451824  .00003076  00000-0  24402-3 0  9991","LAUNCH_DATE":"2022-08-31","CENTER_NAME":"EARTH","ECCENTRICITY":"0.00045430","SITE":"AFWTR","TLE_LINE2":"2 53687  97.6559  51.4452 0004543  56.5780 303.5878 15.01252529 44341","APOAPSIS":"566.188","RCS_SIZE":"LARGE","NORAD_CAT_ID":"53687","MEAN_ANOMALY":"303.5878","OBJECT_TYPE":"PAYLOAD","MEAN_MOTION":"15.01252529","SEMIMAJOR_AXIS":"6941.170","REF_FRAME":"TEME"},{"MEAN_ANOMALY":"316.6844","OBJECT_TYPE":"PAYLOAD","NORAD_CAT_ID":"53688","RCS_SIZE":"LARGE","SEMIMAJOR_AXIS":"6941.146","REF_FRAME":"TEME","MEAN_MOTION":"15.01260334","SITE":"AFWTR","LAUNCH_DATE":"2022-08-31","TLE_LINE1":"1 53688U 22105AS  23170.73222112  .00001463  00000-0  11843-3 0  9997","ECCENTRICITY":"0.00043820","CENTER_NAME":"EARTH","TLE_LINE2":"2 53688  97.6547  51.7610 0004382  43.4725 316.6844 15.01260334 44119","APOAPSIS":"566.052","BSTAR":"0.00011843000000","EPHEMERIS_TYPE":"0","OBJECT_NAME":"STARLINK-4571","TIME_SYSTEM":"UTC","GP_ID":"234319333","INCLINATION":"97.6547","REV_AT_EPOCH":"4411","ELEMENT_SET_NO":"999","EPOCH":"2023-06-19T17:34:23.904768","FILE":"3937509","MEAN_MOTION_DOT":"0.00001463","OBJECT_ID":"2022-105AS","DECAY_DATE":null,"ARG_OF_PERICENTER":"43.4725","PERIAPSIS":"559.969","MEAN_MOTION_DDOT":"0.0000000000000","COUNTRY_CODE":"US","MEAN_ELEMENT_THEORY":"SGP4","CLASSIFICATION_TYPE":"U","RA_OF_ASC_NODE":"51.7610","PERIOD":"95.919"},{"MEAN_MOTION_DDOT":"0.0000000000000","PERIAPSIS":"561.860","ARG_OF_PERICENTER":"107.6908","DECAY_DATE":null,"PERIOD":"95.920","RA_OF_ASC_NODE":"51.4542","CLASSIFICATION_TYPE":"U","COUNTRY_CODE":"US","MEAN_ELEMENT_THEORY":"SGP4","GP_ID":"234288154","TIME_SYSTEM":"UTC","OBJECT_NAME":"STARLINK-4562","EPHEMERIS_TYPE":"0","BSTAR":"0.00015489000000","OBJECT_ID":"2022-105AT","MEAN_MOTION_DOT":"0.00001931","EPOCH":"2023-06-19T09:16:11.034912","FILE":"3937338","ELEMENT_SET_NO":"999","REV_AT_EPOCH":"4406","INCLINATION":"97.6539","CENTER_NAME":"EARTH","ECCENTRICITY":"0.00016830","TLE_LINE1":"1 53689U 22105AT  23170.38623883  .00001931  00000-0  15489-3 0  9999","LAUNCH_DATE":"2022-08-31","SITE":"AFWTR","APOAPSIS":"564.197","TLE_LINE2":"2 53689  97.6539  51.4542 0001683 107.6908 252.4500 15.01254647 44069","RCS_SIZE":"LARGE","NORAD_CAT_ID":"53689","OBJECT_TYPE":"PAYLOAD","MEAN_ANOMALY":"252.4500","MEAN_MOTION":"15.01254647","SEMIMAJOR_AXIS":"6941.163","REF_FRAME":"TEME"},{"RA_OF_ASC_NODE":"51.7600","CLASSIFICATION_TYPE":"U","PERIOD":"95.919","MEAN_ELEMENT_THEORY":"SGP4","COUNTRY_CODE":"US","PERIAPSIS":"561.336","MEAN_MOTION_DDOT":"0.0000000000000","DECAY_DATE":null,"ARG_OF_PERICENTER":"90.0298","OBJECT_ID":"2022-105AU","MEAN_MOTION_DOT":"0.00005372","FILE":"3937509","EPOCH":"2023-06-19T17:29:24.921024","INCLINATION":"97.6547","REV_AT_EPOCH":"4411","ELEMENT_SET_NO":"999","OBJECT_NAME":"STARLINK-4570","TIME_SYSTEM":"UTC","GP_ID":"234318332","EPHEMERIS_TYPE":"0","BSTAR":"0.00042239000000","APOAPSIS":"564.614","TLE_LINE2":"2 53690  97.6547  51.7600 0002361  90.0298 270.1197 15.01271955 44115","CENTER_NAME":"EARTH","ECCENTRICITY":"0.00023610","LAUNCH_DATE":"2022-08-31","TLE_LINE1":"1 53690U 22105AU  23170.72876066  .00005372  00000-0  42239-3 0  9998","SITE":"AFWTR","MEAN_MOTION":"15.01271955","REF_FRAME":"TEME","SEMIMAJOR_AXIS":"6941.110","RCS_SIZE":"LARGE","NORAD_CAT_ID":"53690","OBJECT_TYPE":"PAYLOAD","MEAN_ANOMALY":"270.1197"},{"DECAY_DATE":null,"ARG_OF_PERICENTER":"74.3885","PERIAPSIS":"559.435","MEAN_MOTION_DDOT":"0.0000000000000","COUNTRY_CODE":"US","MEAN_ELEMENT_THEORY":"SGP4","CLASSIFICATION_TYPE":"U","RA_OF_ASC_NODE":"51.7555","PERIOD":"95.919","BSTAR":"0.00025300000000","EPHEMERIS_TYPE":"0","OBJECT_NAME":"STARLINK-4560","TIME_SYSTEM":"UTC","GP_ID":"234319081","INCLINATION":"97.6544","REV_AT_EPOCH":"4411","ELEMENT_SET_NO":"999","EPOCH":"2023-06-19T17:37:03.649728","FILE":"3937509","MEAN_MOTION_DOT":"0.00003193","OBJECT_ID":"2022-105AV","SITE":"AFWTR","TLE_LINE1":"1 53691U 22105AV  23170.73407002  .00003193  00000-0  25300-3 0  9999","LAUNCH_DATE":"2022-08-31","ECCENTRICITY":"0.00051250","CENTER_NAME":"EARTH","TLE_LINE2":"2 53691  97.6544  51.7555 0005125  74.3885 285.7904 15.01266425 44114","APOAPSIS":"566.549","MEAN_ANOMALY":"285.7904","OBJECT_TYPE":"PAYLOAD","NORAD_CAT_ID":"53691","RCS_SIZE":"LARGE","SEMIMAJOR_AXIS":"6941.127","REF_FRAME":"TEME","MEAN_MOTION":"15.01266425"},{"REF_FRAME":"TEME","SEMIMAJOR_AXIS":"6941.166","MEAN_MOTION":"15.01253911","OBJECT_TYPE":"PAYLOAD","MEAN_ANOMALY":"300.9884","NORAD_CAT_ID":"53692","RCS_SIZE":"LARGE","TLE_LINE2":"2 53692  97.6554  51.2943 0002335  59.1570 300.9884 15.01253911 44049","APOAPSIS":"564.651","SITE":"AFWTR","TLE_LINE1":"1 53692U 22105AW  23170.26195217  .00001668  00000-0  13445-3 0  9992","LAUNCH_DATE":"2022-08-31","ECCENTRICITY":"0.00023350","CENTER_NAME":"EARTH","REV_AT_EPOCH":"4404","ELEMENT_SET_NO":"999","INCLINATION":"97.6554","FILE":"3937509","EPOCH":"2023-06-19T06:17:12.667488","MEAN_MOTION_DOT":"0.00001668","OBJECT_ID":"2022-105AW","BSTAR":"0.00013445000000","EPHEMERIS_TYPE":"0","GP_ID":"234319834","OBJECT_NAME":"STARLINK-4572","TIME_SYSTEM":"UTC","COUNTRY_CODE":"US","MEAN_ELEMENT_THEORY":"SGP4","PERIOD":"95.920","RA_OF_ASC_NODE":"51.2943","CLASSIFICATION_TYPE":"U","ARG_OF_PERICENTER":"59.1570","DECAY_DATE":null,"MEAN_MOTION_DDOT":"0.0000000000000","PERIAPSIS":"561.410"}];
